[{"OBJECT_NAME":"STARLINK-3560","OBJECT_ID":"2022-022H","EPOCH":"2025-12-08T05:52:09.304032","MEAN_MOTION":15.08838504,"ECCENTRICITY":0.00013562,"INCLINATION":53.2167,"RA_OF_ASC_NODE":59.6441,"ARG_OF_PERICENTER":100.432,"MEAN_ANOMALY":259.6825,"EPHEMERIS_TYPE":0,"CLASSIFICATION_TYPE":"U","NORAD_CAT_ID":51859,"ELEMENT_SET_NO":999,"REV_AT_EPOCH":20935,"BSTAR":5.5925383e-5,"MEAN_MOTION_DOT":6.02e-6,"MEAN_MOTION_DDOT":0},{"OBJECT_NAME":"STARLINK-3559","OBJECT_ID":"2022-022J","EPOCH":"2025-12-08T06:01:21.603936","MEAN_MOTION":15.08831356,"ECCENTRICITY":0.00013826,"INCLINATION":53.2162,"RA_OF_ASC_NODE":59.6063,"ARG_OF_PERICENTER":91.1865,"MEAN_ANOMALY":268.9285,"EPHEMERIS_TYPE":0,"CLASSIFICATION_TYPE":"U","NORAD_CAT_ID":51860,"ELEMENT_SET_NO":999,"REV_AT_EPOCH":20931,"BSTAR":-0.00020138125,"MEAN_MOTION_DOT":-3.491e-5,"MEAN_MOTION_DDOT":0},{"OBJECT_NAME":"STARLINK-3562","OBJECT_ID":"2022-022K","EPOCH":"2025-12-08T05:40:09.750144","MEAN_MOTION":15.08862583,"ECCENTRICITY":0.00016293,"INCLINATION":53.2158,"RA_OF_ASC_NODE":59.6704,"ARG_OF_PERICENTER":85.7098,"MEAN_ANOMALY":274.408,"EPHEMERIS_TYPE":0,"CLASSIFICATION_TYPE":"U","NORAD_CAT_ID":51861,"ELEMENT_SET_NO":999,"REV_AT_EPOCH":20922,"BSTAR":-0.00024281596,"MEAN_MOTION_DOT":-4.153e-5,"MEAN_MOTION_DDOT":0},{"OBJECT_NAME":"STARLINK-3508","OBJECT_ID":"2022-022L","EPOCH":"2025-12-08T05:56:04.387200","MEAN_MOTION":15.08834956,"ECCENTRICITY":0.00018603,"INCLINATION":53.2189,"RA_OF_ASC_NODE":59.6236,"ARG_OF_PERICENTER":92.712,"MEAN_ANOMALY":267.4085,"EPHEMERIS_TYPE":0,"CLASSIFICATION_TYPE":"U","NORAD_CAT_ID":51862,"ELEMENT_SET_NO":999,"REV_AT_EPOCH":20936,"BSTAR":0.00021716521,"MEAN_MOTION_DOT":3.169e-5,"MEAN_MOTION_DDOT":0},{"OBJECT_NAME":"STARLINK-3555","OBJECT_ID":"2022-022M","EPOCH":"2025-12-08T05:29:33.764928","MEAN_MOTION":15.08849728,"ECCENTRICITY":0.00017902,"INCLINATION":53.2189,"RA_OF_ASC_NODE":59.7041,"ARG_OF_PERICENTER":84.8777,"MEAN_ANOMALY":275.2419,"EPHEMERIS_TYPE":0,"CLASSIFICATION_TYPE":"U","NORAD_CAT_ID":51863,"ELEMENT_SET_NO":999,"REV_AT_EPOCH":20930,"BSTAR":-0.00022162998,"MEAN_MOTION_DOT":-3.815e-5,"MEAN_MOTION_DDOT":0},{"OBJECT_NAME":"STARLINK-3548","OBJECT_ID":"2022-022N","EPOCH":"2025-12-08T05:34:51.190752","MEAN_MOTION":15.08858502,"ECCENTRICITY":0.00018392,"INCLINATION":53.2156,"RA_OF_ASC_NODE":59.6089,"ARG_OF_PERICENTER":95.366,"MEAN_ANOMALY":264.7542,"EPHEMERIS_TYPE":0,"CLASSIFICATION_TYPE":"U","NORAD_CAT_ID":51864,"ELEMENT_SET_NO":999,"REV_AT_EPOCH":20935,"BSTAR":-0.00013420957,"MEAN_MOTION_DOT":-2.425e-5,"MEAN_MOTION_DDOT":0},{"OBJECT_NAME":"STARLINK-3503","OBJECT_ID":"2022-022P","EPOCH":"2025-12-08T05:18:57.958560","MEAN_MOTION":15.08852326,"ECCENTRICITY":0.00017694,"INCLINATION":53.218,"RA_OF_ASC_NODE":59.7386,"ARG_OF_PERICENTER":83.8804,"MEAN_ANOMALY":276.239,"EPHEMERIS_TYPE":0,"CLASSIFICATION_TYPE":"U","NORAD_CAT_ID":51865,"ELEMENT_SET_NO":999,"REV_AT_EPOCH":20930,"BSTAR":0.00010300409,"MEAN_MOTION_DOT":1.352e-5,"MEAN_MOTION_DDOT":0},{"OBJECT_NAME":"STARLINK-3553","OBJECT_ID":"2022-022Q","EPOCH":"2025-12-08T05:15:02.096064","MEAN_MOTION":15.08842255,"ECCENTRICITY":0.0001582,"INCLINATION":53.217,"RA_OF_ASC_NODE":59.6063,"ARG_OF_PERICENTER":87.9867,"MEAN_ANOMALY":272.1306,"EPHEMERIS_TYPE":0,"CLASSIFICATION_TYPE":"U","NORAD_CAT_ID":51866,"ELEMENT_SET_NO":999,"REV_AT_EPOCH":20930,"BSTAR":8.5223662e-5,"MEAN_MOTION_DOT":1.069e-5,"MEAN_MOTION_DDOT":0},{"OBJECT_NAME":"STARLINK-3590","OBJECT_ID":"2022-022R","EPOCH":"2025-12-08T05:13:40.338336","MEAN_MOTION":15.08844567,"ECCENTRICITY":0.00016232,"INCLINATION":53.2181,"RA_OF_ASC_NODE":59.7547,"ARG_OF_PERICENTER":81.2783,"MEAN_ANOMALY":278.8393,"EPHEMERIS_TYPE":0,"CLASSIFICATION_TYPE":"U","NORAD_CAT_ID":51867,"ELEMENT_SET_NO":999,"REV_AT_EPOCH":20930,"BSTAR":1.6767898e-5,"MEAN_MOTION_DOT":-2.1e-7,"MEAN_MOTION_DDOT":0},{"OBJECT_NAME":"STARLINK-3578","OBJECT_ID":"2022-022S","EPOCH":"2025-12-07T23:02:44.320416","MEAN_MOTION":15.08833488,"ECCENTRICITY":0.00015528,"INCLINATION":53.2202,"RA_OF_ASC_NODE":60.9089,"ARG_OF_PERICENTER":86.5539,"MEAN_ANOMALY":273.5631,"EPHEMERIS_TYPE":0,"CLASSIFICATION_TYPE":"U","NORAD_CAT_ID":51868,"ELEMENT_SET_NO":999,"REV_AT_EPOCH":20926,"BSTAR":6.1148273e-5,"MEAN_MOTION_DOT":6.85e-6,"MEAN_MOTION_DDOT":0},{"OBJECT_NAME":"STARLINK-3588","OBJECT_ID":"2022-022T","EPOCH":"2025-12-07T22:36:14.156928","MEAN_MOTION":15.08839191,"ECCENTRICITY":0.00012501,"INCLINATION":53.2177,"RA_OF_ASC_NODE":60.9911,"ARG_OF_PERICENTER":84.0617,"MEAN_ANOMALY":276.0518,"EPHEMERIS_TYPE":0,"CLASSIFICATION_TYPE":"U","NORAD_CAT_ID":51869,"ELEMENT_SET_NO":999,"REV_AT_EPOCH":20926,"BSTAR":0.00019108035,"MEAN_MOTION_DOT":2.754e-5,"MEAN_MOTION_DDOT":0},{"OBJECT_NAME":"STARLINK-3591","OBJECT_ID":"2022-022U","EPOCH":"2025-12-08T05:08:23.138016","MEAN_MOTION":15.08837362,"ECCENTRICITY":0.00013847,"INCLINATION":53.2189,"RA_OF_ASC_NODE":59.7698,"ARG_OF_PERICENTER":89.9497,"MEAN_ANOMALY":270.1654,"EPHEMERIS_TYPE":0,"CLASSIFICATION_TYPE":"U","NORAD_CAT_ID":51870,"ELEMENT_SET_NO":999,"REV_AT_EPOCH":20935,"BSTAR":-0.00025454607,"MEAN_MOTION_DOT":-4.336e-5,"MEAN_MOTION_DDOT":0},{"OBJECT_NAME":"STARLINK-3567","OBJECT_ID":"2022-022V","EPOCH":"2025-12-07T22:30:56.573856","MEAN_MOTION":15.08832027,"ECCENTRICITY":0.00020367,"INCLINATION":53.2167,"RA_OF_ASC_NODE":61.0088,"ARG_OF_PERICENTER":83.3155,"MEAN_ANOMALY":276.8069,"EPHEMERIS_TYPE":0,"CLASSIFICATION_TYPE":"U","NORAD_CAT_ID":51871,"ELEMENT_SET_NO":999,"REV_AT_EPOCH":20937,"BSTAR":-0.00012112887,"MEAN_MOTION_DOT":-2.215e-5,"MEAN_MOTION_DDOT":0},{"OBJECT_NAME":"STARLINK-3554","OBJECT_ID":"2022-022W","EPOCH":"2025-12-07T22:41:32.449344","MEAN_MOTION":15.08828636,"ECCENTRICITY":0.00014354,"INCLINATION":53.2193,"RA_OF_ASC_NODE":60.9767,"ARG_OF_PERICENTER":84.6383,"MEAN_ANOMALY":275.4772,"EPHEMERIS_TYPE":0,"CLASSIFICATION_TYPE":"U","NORAD_CAT_ID":51872,"ELEMENT_SET_NO":999,"REV_AT_EPOCH":20926,"BSTAR":0.00011796364,"MEAN_MOTION_DOT":1.589e-5,"MEAN_MOTION_DDOT":0},{"OBJECT_NAME":"STARLINK-3582","OBJECT_ID":"2022-022X","EPOCH":"2025-12-08T04:58:07.273632","MEAN_MOTION":15.11732166,"ECCENTRICITY":0.00012149,"INCLINATION":53.2133,"RA_OF_ASC_NODE":59.2608,"ARG_OF_PERICENTER":311.888,"MEAN_ANOMALY":48.201,"EPHEMERIS_TYPE":0,"CLASSIFICATION_TYPE":"U","NORAD_CAT_ID":51873,"ELEMENT_SET_NO":999,"REV_AT_EPOCH":20931,"BSTAR":0.0011144264,"MEAN_MOTION_DOT":0.00018964,"MEAN_MOTION_DDOT":0},{"OBJECT_NAME":"STARLINK-3574","OBJECT_ID":"2022-022Y","EPOCH":"2025-12-08T04:47:10.734720","MEAN_MOTION":15.08839323,"ECCENTRICITY":0.0001472,"INCLINATION":53.2134,"RA_OF_ASC_NODE":59.8353,"ARG_OF_PERICENTER":87.0154,"MEAN_ANOMALY":273.1007,"EPHEMERIS_TYPE":0,"CLASSIFICATION_TYPE":"U","NORAD_CAT_ID":51874,"ELEMENT_SET_NO":999,"REV_AT_EPOCH":20929,"BSTAR":7.276371e-6,"MEAN_MOTION_DOT":-1.72e-6,"MEAN_MOTION_DDOT":0},{"OBJECT_NAME":"STARLINK-3585","OBJECT_ID":"2022-022Z","EPOCH":"2025-12-07T15:32:17.125152","MEAN_MOTION":15.08843435,"ECCENTRICITY":0.0001248,"INCLINATION":53.2152,"RA_OF_ASC_NODE":62.2264,"ARG_OF_PERICENTER":93.3174,"MEAN_ANOMALY":266.7961,"EPHEMERIS_TYPE":0,"CLASSIFICATION_TYPE":"U","NORAD_CAT_ID":51875,"ELEMENT_SET_NO":999,"REV_AT_EPOCH":20922,"BSTAR":0.00024982848,"MEAN_MOTION_DOT":3.691e-5,"MEAN_MOTION_DDOT":0},{"OBJECT_NAME":"STARLINK-3583","OBJECT_ID":"2022-022AA","EPOCH":"2025-12-08T04:41:53.825568","MEAN_MOTION":15.08825586,"ECCENTRICITY":6.653e-5,"INCLINATION":53.2175,"RA_OF_ASC_NODE":59.8526,"ARG_OF_PERICENTER":55.824,"MEAN_ANOMALY":304.2816,"EPHEMERIS_TYPE":0,"CLASSIFICATION_TYPE":"U","NORAD_CAT_ID":51876,"ELEMENT_SET_NO":999,"REV_AT_EPOCH":20930,"BSTAR":-5.8381131e-5,"MEAN_MOTION_DOT":-1.216e-5,"MEAN_MOTION_DDOT":0},{"OBJECT_NAME":"STARLINK-3556","OBJECT_ID":"2022-022AB","EPOCH":"2025-12-07T21:55:09.431040","MEAN_MOTION":15.08844994,"ECCENTRICITY":0.00020213,"INCLINATION":53.2182,"RA_OF_ASC_NODE":51.1201,"ARG_OF_PERICENTER":80.2981,"MEAN_ANOMALY":279.8239,"EPHEMERIS_TYPE":0,"CLASSIFICATION_TYPE":"U","NORAD_CAT_ID":51877,"ELEMENT_SET_NO":999,"REV_AT_EPOCH":20939,"BSTAR":0.00016520085,"MEAN_MOTION_DOT":2.342e-5,"MEAN_MOTION_DDOT":0},{"OBJECT_NAME":"STARLINK-3575","OBJECT_ID":"2022-022AC","EPOCH":"2025-12-07T12:37:26.601312","MEAN_MOTION":15.08818656,"ECCENTRICITY":5.132e-5,"INCLINATION":53.2182,"RA_OF_ASC_NODE":62.8594,"ARG_OF_PERICENTER":72.6773,"MEAN_ANOMALY":287.4276,"EPHEMERIS_TYPE":0,"CLASSIFICATION_TYPE":"U","NORAD_CAT_ID":51878,"ELEMENT_SET_NO":999,"REV_AT_EPOCH":20920,"BSTAR":0.00011429383,"MEAN_MOTION_DOT":1.531e-5,"MEAN_MOTION_DDOT":0},{"OBJECT_NAME":"STARLINK-3572","OBJECT_ID":"2022-022AD","EPOCH":"2025-12-07T21:44:34.270080","MEAN_MOTION":15.08838875,"ECCENTRICITY":0.00017251,"INCLINATION":53.2195,"RA_OF_ASC_NODE":51.1564,"ARG_OF_PERICENTER":99.135,"MEAN_ANOMALY":260.9838,"EPHEMERIS_TYPE":0,"CLASSIFICATION_TYPE":"U","NORAD_CAT_ID":51879,"ELEMENT_SET_NO":999,"REV_AT_EPOCH":20939,"BSTAR":-6.1724723e-5,"MEAN_MOTION_DOT":-1.27e-5,"MEAN_MOTION_DDOT":0},{"OBJECT_NAME":"STARLINK-3566","OBJECT_ID":"2022-022AE","EPOCH":"2025-12-08T06:11:55.519008","MEAN_MOTION":15.08843178,"ECCENTRICITY":0.00023513,"INCLINATION":53.2224,"RA_OF_ASC_NODE":59.2953,"ARG_OF_PERICENTER":100.594,"MEAN_ANOMALY":259.5317,"EPHEMERIS_TYPE":0,"CLASSIFICATION_TYPE":"U","NORAD_CAT_ID":51880,"ELEMENT_SET_NO":999,"REV_AT_EPOCH":20931,"BSTAR":0.0003115722,"MEAN_MOTION_DOT":4.674e-5,"MEAN_MOTION_DDOT":0},{"OBJECT_NAME":"STARLINK-3504","OBJECT_ID":"2022-022AF","EPOCH":"2025-12-08T05:30:53.995104","MEAN_MOTION":15.08843521,"ECCENTRICITY":0.00016002,"INCLINATION":53.2178,"RA_OF_ASC_NODE":49.701,"ARG_OF_PERICENTER":102.7629,"MEAN_ANOMALY":257.3542,"EPHEMERIS_TYPE":0,"CLASSIFICATION_TYPE":"U","NORAD_CAT_ID":51881,"ELEMENT_SET_NO":999,"REV_AT_EPOCH":20949,"BSTAR":-5.7082714e-5,"MEAN_MOTION_DOT":-1.196e-5,"MEAN_MOTION_DDOT":0}]
